{
 "generated_at": "2026-06-13T08:21:29Z",
 "sources": [
  {
   "name": "CelesTrak",
   "url": "https://celestrak.org/NORAD/elements/",
   "license": "frei verfügbar; Attribution. Ursprünglich USSPACECOM/Space-Track."
  },
  {
   "name": "GCAT (J. McDowell, planet4589.org)",
   "url": "https://planet4589.org/space/gcat/",
   "license": "CC-BY 4.0"
  }
 ],
 "satellites": [
  {
   "norad": 42988,
   "name": "SKYSAT-C10",
   "intl": "2017-068B",
   "group": "resource",
   "gcat": {
    "class": "B",
    "category": "IMG",
    "owner": "PLABST",
    "state": "US"
   },
   "omm": {
    "OBJECT_NAME": "SKYSAT-C10",
    "OBJECT_ID": "2017-068B",
    "EPOCH": "2026-06-12T20:36:04.394880",
    "MEAN_MOTION": 15.34568821,
    "ECCENTRICITY": 0.0001182,
    "INCLINATION": 97.4493,
    "RA_OF_ASC_NODE": 300.6637,
    "ARG_OF_PERICENTER": 94.0485,
    "MEAN_ANOMALY": 266.0893,
    "EPHEMERIS_TYPE": 0,
    "CLASSIFICATION_TYPE": "U",
    "NORAD_CAT_ID": 42988,
    "ELEMENT_SET_NO": 999,
    "REV_AT_EPOCH": 48169,
    "BSTAR": 0.00028957,
    "MEAN_MOTION_DOT": 0.00009619,
    "MEAN_MOTION_DDOT": 0
   }
  },
  {
   "norad": 42987,
   "name": "SKYSAT-C11",
   "intl": "2017-068A",
   "group": "resource",
   "gcat": {
    "class": "B",
    "category": "IMG",
    "owner": "PLABST",
    "state": "US"
   },
   "omm": {
    "OBJECT_NAME": "SKYSAT-C11",
    "OBJECT_ID": "2017-068A",
    "EPOCH": "2026-06-11T22:02:24.099072",
    "MEAN_MOTION": 15.57622956,
    "ECCENTRICITY": 0.000087,
    "INCLINATION": 97.4339,
    "RA_OF_ASC_NODE": 311.5213,
    "ARG_OF_PERICENTER": 88.8932,
    "MEAN_ANOMALY": 271.2423,
    "EPHEMERIS_TYPE": 0,
    "CLASSIFICATION_TYPE": "U",
    "NORAD_CAT_ID": 42987,
    "ELEMENT_SET_NO": 999,
    "REV_AT_EPOCH": 48242,
    "BSTAR": 0.00033268148,
    "MEAN_MOTION_DOT": 0.00024501,
    "MEAN_MOTION_DDOT": 0
   }
  },
  {
   "norad": 41773,
   "name": "SKYSAT-C2",
   "intl": "2016-058D",
   "group": "resource",
   "gcat": {
    "class": "B",
    "category": "IMG",
    "owner": "TBELLA",
    "state": "US"
   },
   "omm": {
    "OBJECT_NAME": "SKYSAT-C2",
    "OBJECT_ID": "2016-058D",
    "EPOCH": "2026-06-12T00:04:24.080736",
    "MEAN_MOTION": 15.41953046,
    "ECCENTRICITY": 0.00050146,
    "INCLINATION": 97.0173,
    "RA_OF_ASC_NODE": 185.2931,
    "ARG_OF_PERICENTER": 82.1359,
    "MEAN_ANOMALY": 278.0458,
    "EPHEMERIS_TYPE": 0,
    "CLASSIFICATION_TYPE": "U",
    "NORAD_CAT_ID": 41773,
    "ELEMENT_SET_NO": 999,
    "REV_AT_EPOCH": 54425,
    "BSTAR": 0.00026905305,
    "MEAN_MOTION_DOT": 0.00011377,
    "MEAN_MOTION_DDOT": 0
   }
  },
  {
   "norad": 41774,
   "name": "SKYSAT-C3",
   "intl": "2016-058E",
   "group": "resource",
   "gcat": {
    "class": "B",
    "category": "IMG",
    "owner": "TBELLA",
    "state": "US"
   },
   "omm": {
    "OBJECT_NAME": "SKYSAT-C3",
    "OBJECT_ID": "2016-058E",
    "EPOCH": "2026-06-12T01:13:44.219136",
    "MEAN_MOTION": 15.52319154,
    "ECCENTRICITY": 0.00017466,
    "INCLINATION": 96.9009,
    "RA_OF_ASC_NODE": 194.0967,
    "ARG_OF_PERICENTER": 85.4361,
    "MEAN_ANOMALY": 274.7093,
    "EPHEMERIS_TYPE": 0,
    "CLASSIFICATION_TYPE": "U",
    "NORAD_CAT_ID": 41774,
    "ELEMENT_SET_NO": 999,
    "REV_AT_EPOCH": 54531,
    "BSTAR": 0.00036317098,
    "MEAN_MOTION_DOT": 0.00022038,
    "MEAN_MOTION_DDOT": 0
   }
  },
  {
   "norad": 41771,
   "name": "SKYSAT-C4",
   "intl": "2016-058B",
   "group": "resource",
   "gcat": {
    "class": "B",
    "category": "IMG",
    "owner": "TBELLA",
    "state": "US"
   },
   "omm": {
    "OBJECT_NAME": "SKYSAT-C4",
    "OBJECT_ID": "2016-058B",
    "EPOCH": "2026-06-12T19:24:32.780736",
    "MEAN_MOTION": 15.4845382,
    "ECCENTRICITY": 0.0001097,
    "INCLINATION": 96.9173,
    "RA_OF_ASC_NODE": 185.7643,
    "ARG_OF_PERICENTER": 123.8914,
    "MEAN_ANOMALY": 236.2443,
    "EPHEMERIS_TYPE": 0,
    "CLASSIFICATION_TYPE": "U",
    "NORAD_CAT_ID": 41771,
    "ELEMENT_SET_NO": 999,
    "REV_AT_EPOCH": 54479,
    "BSTAR": 0.00032248,
    "MEAN_MOTION_DOT": 0.00017048,
    "MEAN_MOTION_DDOT": 0
   }
  },
  {
   "norad": 41772,
   "name": "SKYSAT-C5",
   "intl": "2016-058C",
   "group": "resource",
   "gcat": {
    "class": "B",
    "category": "IMG",
    "owner": "TBELLA",
    "state": "US"
   },
   "omm": {
    "OBJECT_NAME": "SKYSAT-C5",
    "OBJECT_ID": "2016-058C",
    "EPOCH": "2026-06-12T01:58:50.007936",
    "MEAN_MOTION": 15.34397832,
    "ECCENTRICITY": 0.00015841,
    "INCLINATION": 97.0478,
    "RA_OF_ASC_NODE": 203.9505,
    "ARG_OF_PERICENTER": 349.6001,
    "MEAN_ANOMALY": 10.521,
    "EPHEMERIS_TYPE": 0,
    "CLASSIFICATION_TYPE": "U",
    "NORAD_CAT_ID": 41772,
    "ELEMENT_SET_NO": 999,
    "REV_AT_EPOCH": 54296,
    "BSTAR": 0.00021574737,
    "MEAN_MOTION_DOT": 0.00007112,
    "MEAN_MOTION_DDOT": 0
   }
  },
  {
   "norad": 42992,
   "name": "SKYSAT-C6",
   "intl": "2017-068F",
   "group": "resource",
   "gcat": {
    "class": "B",
    "category": "IMG",
    "owner": "PLABST",
    "state": "US"
   },
   "omm": {
    "OBJECT_NAME": "SKYSAT-C6",
    "OBJECT_ID": "2017-068F",
    "EPOCH": "2026-06-12T20:12:28.785312",
    "MEAN_MOTION": 15.34138397,
    "ECCENTRICITY": 0.0004235,
    "INCLINATION": 97.4556,
    "RA_OF_ASC_NODE": 301.4052,
    "ARG_OF_PERICENTER": 148.8695,
    "MEAN_ANOMALY": 211.28,
    "EPHEMERIS_TYPE": 0,
    "CLASSIFICATION_TYPE": "U",
    "NORAD_CAT_ID": 42992,
    "ELEMENT_SET_NO": 999,
    "REV_AT_EPOCH": 48165,
    "BSTAR": 0.00029023,
    "MEAN_MOTION_DOT": 0.00009512,
    "MEAN_MOTION_DDOT": 0
   }
  },
  {
   "norad": 42991,
   "name": "SKYSAT-C7",
   "intl": "2017-068E",
   "group": "resource",
   "gcat": {
    "class": "B",
    "category": "IMG",
    "owner": "PLABST",
    "state": "US"
   },
   "omm": {
    "OBJECT_NAME": "SKYSAT-C7",
    "OBJECT_ID": "2017-068E",
    "EPOCH": "2026-06-12T19:54:52.668864",
    "MEAN_MOTION": 15.36843293,
    "ECCENTRICITY": 0.0007152,
    "INCLINATION": 97.4521,
    "RA_OF_ASC_NODE": 301.4072,
    "ARG_OF_PERICENTER": 119.0649,
    "MEAN_ANOMALY": 241.1312,
    "EPHEMERIS_TYPE": 0,
    "CLASSIFICATION_TYPE": "U",
    "NORAD_CAT_ID": 42991,
    "ELEMENT_SET_NO": 999,
    "REV_AT_EPOCH": 48170,
    "BSTAR": 0.00030209,
    "MEAN_MOTION_DOT": 0.00010807,
    "MEAN_MOTION_DDOT": 0
   }
  },
  {
   "norad": 42990,
   "name": "SKYSAT-C8",
   "intl": "2017-068D",
   "group": "resource",
   "gcat": {
    "class": "B",
    "category": "IMG",
    "owner": "PLABST",
    "state": "US"
   },
   "omm": {
    "OBJECT_NAME": "SKYSAT-C8",
    "OBJECT_ID": "2017-068D",
    "EPOCH": "2026-06-12T20:04:16.402080",
    "MEAN_MOTION": 15.36894208,
    "ECCENTRICITY": 0.0001491,
    "INCLINATION": 97.451,
    "RA_OF_ASC_NODE": 300.4246,
    "ARG_OF_PERICENTER": 97.1019,
    "MEAN_ANOMALY": 263.0395,
    "EPHEMERIS_TYPE": 0,
    "CLASSIFICATION_TYPE": "U",
    "NORAD_CAT_ID": 42990,
    "ELEMENT_SET_NO": 999,
    "REV_AT_EPOCH": 48164,
    "BSTAR": 0.000293,
    "MEAN_MOTION_DOT": 0.00010489,
    "MEAN_MOTION_DDOT": 0
   }
  },
  {
   "norad": 42989,
   "name": "SKYSAT-C9",
   "intl": "2017-068C",
   "group": "resource",
   "gcat": {
    "class": "B",
    "category": "IMG",
    "owner": "PLABST",
    "state": "US"
   },
   "omm": {
    "OBJECT_NAME": "SKYSAT-C9",
    "OBJECT_ID": "2017-068C",
    "EPOCH": "2026-06-12T19:47:45.851136",
    "MEAN_MOTION": 15.41457575,
    "ECCENTRICITY": 0.0009198,
    "INCLINATION": 97.4413,
    "RA_OF_ASC_NODE": 301.523,
    "ARG_OF_PERICENTER": 146.7625,
    "MEAN_ANOMALY": 213.4201,
    "EPHEMERIS_TYPE": 0,
    "CLASSIFICATION_TYPE": "U",
    "NORAD_CAT_ID": 42989,
    "ELEMENT_SET_NO": 999,
    "REV_AT_EPOCH": 48208,
    "BSTAR": 0.00032566,
    "MEAN_MOTION_DOT": 0.00013573,
    "MEAN_MOTION_DDOT": 0
   }
  }
 ]
}
