{"fetched_at":"2026-06-13T17:21:47Z","count":1672,"tles":[{"name":"SKYSAT-C2","line1":"1 41773U 16058D   26163.00305649  .00011377  00000+0  26905-3 0  9990","line2":"2 41773  97.0173 185.2931 0005014  82.1359 278.0458 15.41953046544250","category":"Other"},{"name":"SKYSAT-C11","line1":"1 42987U 17068A   26162.91833448  .00024501  00000+0  33268-3 0  9995","line2":"2 42987  97.4339 311.5213 0000870  88.8932 271.2423 15.57622956482425","category":"Other"},{"name":"SKYSAT-C10","line1":"1 42988U 17068B   26163.85838420  .00009619  00000+0  28957-3 0  9997","line2":"2 42988  97.4493 300.6637 0001182  94.0485 266.0893 15.34568821481691","category":"Other"},{"name":"SKYSAT-C9","line1":"1 42989U 17068C   26163.82483624  .00013573  00000+0  32566-3 0  9992","line2":"2 42989  97.4413 301.5230 0009198 146.7625 213.4201 15.41457575482083","category":"Other"},{"name":"SKYSAT-C8","line1":"1 42990U 17068D   26163.83630095  .00010489  00000+0  29300-3 0  9996","line2":"2 42990  97.4510 300.4246 0001491  97.1019 263.0395 15.36894208481640","category":"Other"},{"name":"SKYSAT-C7","line1":"1 42991U 17068E   26163.82977626  .00010807  00000+0  30209-3 0  9994","line2":"2 42991  97.4521 301.4072 0007152 119.0649 241.1312 15.36843293481705","category":"Other"},{"name":"SKYSAT-C4","line1":"1 41771U 16058B   26163.80871274  .00017048  00000+0  32248-3 0  9996","line2":"2 41771  96.9173 185.7643 0001097 123.8914 236.2443 15.48453820544799","category":"Other"},{"name":"SKYSAT-C6","line1":"1 42992U 17068F   26163.84199983  .00009512  00000+0  29023-3 0  9992","line2":"2 42992  97.4556 301.4052 0004235 148.8695 211.2800 15.34138397481656","category":"Other"},{"name":"SKYSAT-C5","line1":"1 41772U 16058C   26163.08252324  .00007112  00000+0  21575-3 0  9998","line2":"2 41772  97.0478 203.9505 0001584 349.6001  10.5210 15.34397832542963","category":"Other"},{"name":"SKYSAT-C3","line1":"1 41774U 16058E   26163.05120624  .00022038  00000+0  36317-3 0  9998","line2":"2 41774  96.9009 194.0967 0001746  85.4361 274.7093 15.52319154545315","category":"Other"}]}